NORAD_CAT_ID,OBJECT_NAME,OBJECT_TYPE,EPOCH,MEAN_MOTION,ECCENTRICITY,INCLINATION,RA_OF_ASC_NODE,ARG_OF_PERICENTER,MEAN_ANOMALY,BSTAR,MEAN_MOTION_DOT,MEAN_MOTION_DDOT,TLE_LINE0,TLE_LINE1,TLE_LINE2,SEMIMAJOR_AXIS,PERIOD,APOGEE,PERIGEE,DECAYED
52098.0,STARLINK-3665,PAYLOAD,2023-07-03 02:49:39,15.08838457,0.0001003,53.2163,171.0783,86.545,273.5657,3.4706e-05,2.65e-06,0.0,0 STARLINK-3665,1 52098U 22029L   23184.11782193  .00000265  00000-0  34706-4 0  9996,2 52098  53.2163 171.0783 0001003  86.5450 273.5657 15.08838457 72626,6917.885,95.438,540.444,539.056,0.0
52098.0,STARLINK-3665,PAYLOAD,2023-07-04 04:15:50,15.08835727,0.0001019,53.2162,166.3214,82.1699,277.9408,8.5828e-06,-1.51e-06,0.0,0 STARLINK-3665,1 52098U 22029L   23185.17766633 -.00000151  00000-0  85828-5 0  9991,2 52098  53.2162 166.3214 0001019  82.1699 277.9408 15.08835727 72781,6917.893,95.438,540.463,539.054,0.0
52098.0,STARLINK-3665,PAYLOAD,2023-07-05 05:42:00,15.08838959,0.0001019,53.2161,161.5642,83.9592,276.1516,3.2174e-05,2.24e-06,0.0,0 STARLINK-3665,1 52098U 22029L   23186.23750564  .00000224  00000-0  32174-4 0  9990,2 52098  53.2161 161.5642 0001019  83.9592 276.1516 15.08838959 72942,6917.884,95.438,540.454,539.044,0.0
52098.0,STARLINK-3665,PAYLOAD,2023-07-06 00:46:38,15.08832401,0.000107,53.2162,157.9955,89.1256,270.9858,1.6999e-05,-1.7e-07,0.0,0 STARLINK-3665,1 52098U 22029L   23187.03239263 -.00000017  00000-0  16999-4 0  9995,2 52098  53.2162 157.9955 0001070  89.1256 270.9858 15.08832401 73062,6917.904,95.438,540.509,539.028,0.0
52098.0,STARLINK-3665,PAYLOAD,2023-07-06 16:40:29,15.08839752,0.0001091,53.2163,155.0219,91.2995,268.8122,5.414e-05,5.74e-06,0.0,0 STARLINK-3665,1 52098U 22029L   23187.69478869  .00000574  00000-0  54140-4 0  9991,2 52098  53.2163 155.0219 0001091  91.2995 268.8122 15.08839752 73169,6917.881,95.438,540.501,538.991,0.0
52098.0,STARLINK-3665,PAYLOAD,2023-07-07 06:58:57,15.08850622,0.0001135,53.2163,152.3455,89.574,270.5382,0.00011458,1.537e-05,0.0,0 STARLINK-3665,1 52098U 22029L   23188.29093961  .00001537  00000-0  11458-3 0  9998,2 52098  53.2163 152.3455 0001135  89.5740 270.5382 15.08850622 73255,6917.848,95.437,540.498,538.928,0.0
52098.0,STARLINK-3665,PAYLOAD,2023-07-07 14:55:53,15.08840587,0.0001107,53.2149,150.8556,87.6978,272.4141,-2.7041e-05,-7.18e-06,0.0,0 STARLINK-3665,1 52098U 22029L   23188.62214891 -.00000718  00000-0 -27041-4 0  9990,2 52098  53.2149 150.8556 0001107  87.6978 272.4141 15.08840587 73304,6917.879,95.438,540.509,538.978,0.0
52098.0,STARLINK-3665,PAYLOAD,2023-07-07 22:52:49,15.08829698,0.0001168,53.2154,149.3692,90.2164,269.8962,0.00010237,1.341e-05,0.0,0 STARLINK-3665,1 52098U 22029L   23188.95335332  .00001341  00000-0  10237-3 0  9999,2 52098  53.2154 149.3692 0001168  90.2164 269.8962 15.08829698 73354,6917.912,95.438,540.585,538.969,0.0
52098.0,STARLINK-3665,PAYLOAD,2023-07-08 14:46:40,15.08838626,0.0001143,53.2166,146.3954,91.6292,268.4831,2.5792e-05,1.23e-06,0.0,0 STARLINK-3665,1 52098U 22029L   23189.61575072  .00000123  00000-0  25792-4 0  9990,2 52098  53.2166 146.3954 0001143  91.6292 268.4831 15.08838626 73457,6917.885,95.438,540.54,538.959,0.0
52098.0,STARLINK-3665,PAYLOAD,2023-07-10 03:20:32,15.08841132,0.0001175,53.217,139.5567,92.4902,267.6225,8.9864e-05,1.143e-05,0.0,0 STARLINK-3665,1 52098U 22029L   23191.13926835  .00001143  00000-0  89864-4 0  9990,2 52098  53.2170 139.5567 0001175  92.4902 267.6225 15.08841132 73687,6917.877,95.437,540.555,538.929,0.0
52098.0,STARLINK-3665,PAYLOAD,2023-07-11 03:11:20,15.08838965,0.0001109,53.2168,135.0979,91.6179,268.494,7.5655e-05,9.16e-06,0.0,0 STARLINK-3665,1 52098U 22029L   23192.13287176  .00000916  00000-0  75655-4 0  9999,2 52098  53.2168 135.0979 0001109  91.6179 268.4940 15.08838965 73836,6917.884,95.438,540.516,538.981,0.0
52098.0,STARLINK-3665,PAYLOAD,2023-07-11 19:05:11,15.0880845,0.000117,53.2169,132.1242,114.7227,245.3887,0.00035537,5.368e-05,0.0,0 STARLINK-3665,1 52098U 22029L   23192.79527622  .00005368  00000-0  35537-3 0  9994,2 52098  53.2169 132.1242 0001170 114.7227 245.3887 15.08808450 73938,6917.977,95.44,540.651,539.032,0.0
52098.0,STARLINK-3665,PAYLOAD,2023-07-11 22:15:58,15.08833904,0.0001105,53.2169,131.5293,98.5122,261.5995,3.5865e-05,2.83e-06,0.0,0 STARLINK-3665,1 52098U 22029L   23192.92775671  .00000283  00000-0  35865-4 0  9994,2 52098  53.2169 131.5293 0001105  98.5122 261.5995 15.08833904 73952,6917.899,95.438,540.528,539.0,0.0
52098.0,STARLINK-3665,PAYLOAD,2023-07-12 14:09:49,15.08843659,0.0001092,53.2168,128.5568,95.0128,265.0989,-1.3496e-05,-5.03e-06,0.0,0 STARLINK-3665,1 52098U 22029L   23193.59015257 -.00000503  00000-0 -13496-4 0  9998,2 52098  53.2168 128.5568 0001092  95.0128 265.0989 15.08843659 74057,6917.869,95.437,540.49,538.979,0.0
52098.0,STARLINK-3665,PAYLOAD,2023-07-13 02:52:54,15.08830372,0.0001059,53.2168,126.1779,93.7886,266.3227,0.00012343,1.677e-05,0.0,0 STARLINK-3665,1 52098U 22029L   23194.12007904  .00001677  00000-0  12343-3 0  9998,2 52098  53.2168 126.1779 0001059  93.7886 266.3227 15.08830372 74130,6917.91,95.438,540.507,539.042,0.0
52098.0,STARLINK-3665,PAYLOAD,2023-07-14 04:19:04,15.08840842,9.86e-05,53.217,121.4207,88.2213,271.8893,8.3817e-05,1.046e-05,0.0,0 STARLINK-3665,1 52098U 22029L   23195.17991634  .00001046  00000-0  83817-4 0  9991,2 52098  53.2170 121.4207 0000986  88.2213 271.8893 15.08840842 74298,6917.878,95.438,540.425,539.061,0.0
52098.0,STARLINK-3665,PAYLOAD,2023-07-15 04:09:50,15.08853168,0.0001115,53.2174,116.9586,82.5875,277.5244,0.00016791,2.386e-05,0.0,0 STARLINK-3665,1 52098U 22029L   23196.17350604  .00002386  00000-0  16791-3 0  9992,2 52098  53.2174 116.9586 0001115  82.5875 277.5244 15.08853168 74442,6917.84,95.437,540.476,538.934,0.0
52098.0,STARLINK-3665,PAYLOAD,2023-07-15 18:28:20,15.08838561,0.0001349,53.2167,114.2842,78.2201,281.8943,-4.5272e-07,-2.95e-06,0.0,0 STARLINK-3665,1 52098U 22029L   23196.76968207 -.00000295  00000-0 -45272-6 0  9999,2 52098  53.2167 114.2842 0001349  78.2201 281.8943 15.08838561 74538,6917.885,95.438,540.683,538.817,0.0
52098.0,STARLINK-3665,PAYLOAD,2023-07-17 00:40:39,15.08847736,0.000118,53.2176,108.631,100.0511,260.0614,-5.387e-06,-3.74e-06,0.0,0 STARLINK-3665,1 52098U 22029L   23198.02823674 -.00000374  00000-0 -53870-5 0  9998,2 52098  53.2176 108.6310 0001180 100.0511 260.0614 15.08847736 74725,6917.857,95.437,540.538,538.905,0.0
52098.0,STARLINK-3665,PAYLOAD,2023-07-18 03:42:12,15.08849766,0.0001152,53.217,103.5774,89.6918,270.4206,0.00019013,2.74e-05,0.0,0 STARLINK-3665,1 52098U 22029L   23199.15431123  .00002740  00000-0  19013-3 0  9993,2 52098  53.2170 103.5774 0001152  89.6918 270.4206 15.08849766 74894,6917.851,95.437,540.512,538.919,0.0
52098.0,STARLINK-3665,PAYLOAD,2023-07-18 18:00:41,15.08835775,0.0001184,53.217,100.9035,79.7306,280.382,5.5578e-05,5.97e-06,0.0,0 STARLINK-3665,1 52098U 22029L   23199.75048467  .00000597  00000-0  55578-4 0  9999,2 52098  53.2170 100.9035 0001184  79.7306 280.3820 15.08835775 74988,6917.893,95.438,540.577,538.939,0.0
52098.0,STARLINK-3665,PAYLOAD,2023-07-19 19:26:52,15.08835197,0.0001248,53.2169,96.1438,93.6001,266.5134,1.7634e-05,-7e-08,0.0,0 STARLINK-3665,1 52098U 22029L   23200.81032828 -.00000007  00000-0  17634-4 0  9991,2 52098  53.2169  96.1438 0001248  93.6001 266.5134 15.08835197 75148,6917.895,95.438,540.623,538.897,0.0
52098.0,STARLINK-3665,PAYLOAD,2023-07-20 22:28:25,15.08835724,0.0001278,53.2174,91.0867,96.0061,264.1077,0.00011498,1.542e-05,0.0,0 STARLINK-3665,1 52098U 22029L   23201.93640897  .00001542  00000-0  11498-3 0  9991,2 52098  53.2174  91.0867 0001278  96.0061 264.1077 15.08835724 75315,6917.893,95.438,540.643,538.874,0.0
52098.0,STARLINK-3665,PAYLOAD,2023-07-24 01:11:32,15.08848234,0.0001191,53.2173,77.1114,98.5314,261.5814,2.6141e-05,1.28e-06,0.0,0 STARLINK-3665,1 52098U 22029L   23205.04968529  .00000128  00000-0  26141-4 0  9993,2 52098  53.2173  77.1114 0001191  98.5314 261.5814 15.08848234 75787,6917.855,95.437,540.544,538.896,0.0
52098.0,STARLINK-3665,PAYLOAD,2023-07-24 18:40:47,15.08839331,0.0001299,53.2171,73.84,98.9882,261.1257,0.00013971,1.936e-05,0.0,0 STARLINK-3665,1 52098U 22029L   23205.77832852  .00001936  00000-0  13971-3 0  9996,2 52098  53.2171  73.8400 0001299  98.9882 261.1257 15.08839331 75896,6917.882,95.438,540.646,538.849,0.0
52098.0,STARLINK-3665,PAYLOAD,2023-07-26 02:28:30,15.08841736,0.0001308,53.2164,67.8904,110.1009,250.0124,6.719e-05,7.82e-06,0.0,0 STARLINK-3665,1 52098U 22029L   23207.10312850  .00000782  00000-0  67190-4 0  9997,2 52098  53.2164  67.8904 0001308 110.1009 250.0124 15.08841736 76094,6917.875,95.437,540.645,538.835,0.0
52098.0,STARLINK-3665,PAYLOAD,2023-07-26 21:33:07,15.08869399,0.0001101,53.2178,64.3255,68.9651,291.1459,-0.00023926,-4.097e-05,0.0,0 STARLINK-3665,1 52098U 22029L   23207.89800010 -.00004097  00000-0 -23926-3 0  9996,2 52098  53.2178  64.3255 0001101  68.9651 291.1459 15.08869399 76210,6917.791,95.436,540.417,538.894,0.0
52098.0,STARLINK-3665,PAYLOAD,2023-07-27 10:16:13,15.08835914,9.88e-05,53.2187,61.9532,92.9376,267.173,1.7746e-05,-5e-08,0.0,0 STARLINK-3665,1 52098U 22029L   23208.42793540 -.00000005  00000-0  17746-4 0  9993,2 52098  53.2187  61.9532 0000988  92.9376 267.1730 15.08835914 76293,6917.893,95.438,540.441,539.074,0.0
52098.0,STARLINK-3665,PAYLOAD,2023-07-27 13:26:59,15.08830881,6.97e-05,53.2192,61.3568,92.0585,268.0487,8.069e-05,9.96e-06,0.0,0 STARLINK-3665,1 52098U 22029L   23208.56041583  .00000996  00000-0  80690-4 0  9997,2 52098  53.2192  61.3568 0000697  92.0585 268.0487 15.08830881 76312,6917.908,95.438,540.255,539.291,0.0
52098.0,STARLINK-3665,PAYLOAD,2023-07-27 21:23:56,15.08823769,9.02e-05,53.2178,59.867,95.4694,264.6401,1.2273e-05,-9.2e-07,0.0,0 STARLINK-3665,1 52098U 22029L   23208.89162598 -.00000092  00000-0  12273-4 0  9993,2 52098  53.2178  59.8670 0000902  95.4694 264.6401 15.08823769 76369,6917.93,95.439,540.419,539.171,0.0
